SAUDISAT 5A             
1 43831U 18102A   26192.52333257  .00003326  00000+0  12319-3 0  9993
2 43831  97.3060 253.6369 0010748  55.3466 304.8786 15.28297332419393
SAUDISAT 5B             
1 43833U 18102C   26192.53818825  .00003234  00000+0  11894-3 0  9990
2 43833  97.3168 256.7653 0011507  56.6096 303.6243 15.28541754419510
GAOFEN-10R              
1 44622U 19066A   26192.51050475  .00000639  00000+0  85320-4 0  9996
2 44622  98.0513 146.2680 0007029  62.6190 297.5737 14.83052433365989
CARTOSAT-3              
1 44804U 19081A   26192.46087318  .00002677  00000+0  12978-3 0  9997
2 44804  97.4298 253.9361 0013318  72.8824 287.3868 15.19307467367154
GAOFEN-12 01            
1 44819U 19082A   26192.54637804  .00000200  00000+0  32804-4 0  9995
2 44819  97.8107 198.2835 0001164  52.2178 307.9139 14.80477785357696
CSG-1                   
1 44873U 19092A   26192.42267420  .00000235  00000+0  36119-4 0  9997
2 44873  97.8893  15.6748 0001488  90.8040 269.3344 14.82149492355069
NEMO-HD                 
1 46277U 20061F   26192.48485139  .00006943  00000+0  14869-3 0  9999
2 46277  97.1912 254.1979 0001050  86.0760 274.0609 15.45085846325731
SENTINEL-6A             
1 46984U 20086A   26191.11788431 -.00000069  00000+0 -35327-4 0  9999
2 46984  66.0414  87.4266 0007814 269.9813  90.0306 12.80930082263265
CAS500-1                
1 47932U 21022A   26192.54977554  .00003406  00000+0  16055-3 0  9990
2 47932  97.3876  87.3068 0004799 180.7798 179.3430 15.20157257294465
GAOFEN-12 02            
1 48079U 21026A   26192.49246527  .00000201  00000+0  33268-4 0  9996
2 48079  97.9931 190.5748 0005595 141.9021 218.2588 14.80314489285353
PLEIADES NEO 3          
1 48268U 21034A   26192.49730084  .00001015  00000+0  13558-3 0  9994
2 48268  97.8939 266.9142 0001361  94.8506 265.2862 14.81678264281254
PLEIADES NEO 4          
1 49070U 21073E   26192.46352712  .00000547  00000+0  76132-4 0  9991
2 49070  97.8938 266.8772 0001339  91.5842 268.5524 14.81674630264968
LANDSAT 9               
1 49260U 21088A   26191.81894686  .00000149  00000+0  43075-4 0  9995
2 49260  98.2341 261.7009 0001513 185.5660 174.5522 14.57104463254446
CSG-2                   
1 51444U 22008A   26192.52389654 -.00000119  00000+0 -83720-5 0  9999
2 51444  97.8895  15.7692 0001502  86.6527 273.4858 14.82146956240197
GAOFEN-12 03            
1 52912U 22069A   26192.52656453  .00000779  00000+0  10949-3 0  9992
2 52912  97.8253  79.7801 0002508  77.0772 283.0721 14.80073420218218
SWOT                    
1 54754U 22173A   26192.49705222  .00000067  00000+0  46997-4 0  9992
2 54754  77.6107   2.4905 0000298  75.8911 284.2274 14.00172159182555
GAOFEN-12 04            
1 57654U 23123A   26192.54552581  .00001104  00000+0  15357-3 0  9992
2 57654  97.9104 110.2004 0003706  57.7049 302.4522 14.79771082156236
PARS 1                  
1 59065U 24039Q   26192.52206493  .00007329  00000+0  15069-3 0  9998
2 59065  97.4831 174.2186 0010243  38.7960 321.4022 15.46236480132404
RESURS-P 4              
1 59371U 24061A   26192.55772388  .00001890  00000+0  63109-4 0  9993
2 59371  97.2758 140.0351 0003210  94.6703 265.4905 15.32266730127493
LEGION 1                
1 59625U 24081A   26192.50484410  .00002232  00000+0  11692-3 0  9998
2 59625  97.5014 270.1036 0007683 285.0868  74.9515 15.16828757121224
LEGION 2                
1 59626U 24081B   26192.46920568  .00002045  00000+0  10743-3 0  9991
2 59626  97.5014 270.1652 0010031 248.0441 111.9727 15.16807709121227
ALOS-4 (DAICHI-4)       
1 60182U 24123A   26192.57398668  .00000786  00000+0  11208-3 0  9996
2 60182  97.9220 289.3999 0001607  97.7398 262.3996 14.79475579109481
LEGION 3                
1 60452U 24146A   26192.44786794  .00002030  00000+0  11858-3 0  9993
2 60452  45.0013 260.4746 0008547 314.1384  45.8791 15.15641006105705
LEGION 4                
1 60453U 24146B   26192.51358925  .00002890  00000+0  16289-3 0  9990
2 60453  45.0027 351.9888 0008957  90.6036 269.5868 15.15663058104563
SENTINEL-2C             
1 60989U 24157A   26192.15856554  .00000029  00000+0  27780-4 0  9998
2 60989  98.5685 266.6006 0000947  99.1815 260.9475 14.30814932 96412
IONOSFERA-M 1           
1 61735U 24199A   26192.52652554  .00000023  00000+0  30094-4 0  9995
2 61735  98.7141  65.4382 0002197  77.6137 282.5287 14.22758591131162
IONOSFERA-M 2           
1 61736U 24199B   26192.49043705  .00000015  00000+0  26264-4 0  9999
2 61736  98.7140  65.3130 0000378 110.5481 249.5738 14.22761965134289
PRSC-EO1                
1 62725U 25012A   26192.32282968  .00004065  00000+0  20455-3 0  9995
2 62725  97.4221 264.3100 0006631 161.2543 198.8936 15.17752178 81853
BIOMASS                 
1 63772U 25090A   26192.51364029  .00000567  00000+0  10843-3 0  9997
2 63772  98.0731  19.4739 0001474  88.7635 271.3739 14.67537501 64259
GOSAT-GW (IBUKI GW)     
1 64694U 25141A   26192.53093112  .00000243  00000+0  51287-4 0  9991
2 64694  98.0565 129.4525 0001451  84.3336 275.8034 14.67554733 55419
IONOSFERA-M 3           
1 64876U 25155A   26192.52990260 -.00000001  00000+0  19058-4 0  9990
2 64876  98.6037 153.8238 0002180 118.1219 242.0179 14.21490415 49863
