OBJECT_NAME,OBJECT_ID,EPOCH,MEAN_MOTION,ECCENTRICITY,INCLINATION,RA_OF_ASC_NODE,ARG_OF_PERICENTER,MEAN_ANOMALY,EPHEMERIS_TYPE,CLASSIFICATION_TYPE,NORAD_CAT_ID,ELEMENT_SET_NO,REV_AT_EPOCH,BSTAR,MEAN_MOTION_DOT,MEAN_MOTION_DDOT
SAUDISAT 5A,2018-102A,2026-07-11T12:33:35.934048,15.28297332,.0010748,97.3060,253.6369,55.3466,304.8786,0,U,43831,999,41939,.12319E-3,.3326E-4,0
SAUDISAT 5B,2018-102C,2026-07-11T12:54:59.464800,15.28541754,.0011507,97.3168,256.7653,56.6096,303.6243,0,U,43833,999,41951,.11894E-3,.3234E-4,0
GAOFEN-10R,2019-066A,2026-07-11T12:15:07.610400,14.83052433,.0007029,98.0513,146.2680,62.6190,297.5737,0,U,44622,999,36598,.8532E-4,.639E-5,0
CARTOSAT-3,2019-081A,2026-07-11T11:03:39.442752,15.19307467,.0013318,97.4298,253.9361,72.8824,287.3868,0,U,44804,999,36715,.12978E-3,.2677E-4,0
GAOFEN-12 01,2019-082A,2026-07-11T13:06:47.062656,14.80477785,.0001164,97.8107,198.2835,52.2178,307.9139,0,U,44819,999,35769,.32804E-4,.2E-5,0
CSG-1,2019-092A,2026-07-11T10:08:39.050880,14.82149492,.0001488,97.8893,15.6748,90.8040,269.3344,0,U,44873,999,35506,.36119E-4,.235E-5,0
NEMO-HD,2020-061F,2026-07-11T11:38:11.160096,15.45085846,.000105,97.1912,254.1979,86.0760,274.0609,0,U,46277,999,32573,.14869E-3,.6943E-4,0
SENTINEL-6A,2020-086A,2026-07-10T02:49:45.204384,12.80930082,.00078145,66.0414,87.4266,269.9813,90.0306,0,U,46984,999,26326,-.35327187E-4,-.69E-6,0
CAS500-1,2021-022A,2026-07-11T13:11:40.606656,15.20157257,.0004799,97.3876,87.3068,180.7798,179.3430,0,U,47932,999,29446,.16055E-3,.3406E-4,0
GAOFEN-12 02,2021-026A,2026-07-11T11:49:08.999328,14.80314489,.0005595,97.9931,190.5748,141.9021,218.2588,0,U,48079,999,28535,.33268E-4,.201E-5,0
PLEIADES NEO 3,2021-034A,2026-07-11T11:56:06.792576,14.81678264,.0001361,97.8939,266.9142,94.8506,265.2862,0,U,48268,999,28125,.13558E-3,.1015E-4,0
PLEIADES NEO 4,2021-073E,2026-07-11T11:07:28.743168,14.81674630,.0001339,97.8938,266.8772,91.5842,268.5524,0,U,49070,999,26496,.76132E-4,.547E-5,0
LANDSAT 9,2021-088A,2026-07-10T19:39:17.008704,14.57104463,.0001513,98.2341,261.7009,185.5660,174.5522,0,U,49260,999,25444,.43075E-4,.149E-5,0
CSG-2,2022-008A,2026-07-11T12:34:24.661056,14.82146956,.0001502,97.8895,15.7692,86.6527,273.4858,0,U,51444,999,24019,-.8372E-5,-.119E-5,0
GAOFEN-12 03,2022-069A,2026-07-11T12:38:15.175392,14.80073420,.0002508,97.8253,79.7801,77.0772,283.0721,0,U,52912,999,21821,.10949E-3,.779E-5,0
SWOT,2022-173A,2026-07-11T11:55:45.311808,14.00172159,.0000298,77.6107,2.4905,75.8911,284.2274,0,U,54754,999,18255,.46997E-4,.67E-6,0
GAOFEN-12 04,2023-123A,2026-07-11T13:05:33.429984,14.79771082,.0003706,97.9104,110.2004,57.7049,302.4522,0,U,57654,999,15623,.15357E-3,.1104E-4,0
PARS 1,2024-039Q,2026-07-11T12:31:46.409952,15.46236480,.0010243,97.4831,174.2186,38.7960,321.4022,0,U,59065,999,13240,.15069E-3,.7329E-4,0
RESURS-P 4,2024-061A,2026-07-11T13:23:07.343232,15.32266730,.000321,97.2758,140.0351,94.6703,265.4905,0,U,59371,999,12749,.63109E-4,.189E-4,0
LEGION 1,2024-081A,2026-07-11T12:06:58.530240,15.16828757,.0007683,97.5014,270.1036,285.0868,74.9515,0,U,59625,999,12122,.11692E-3,.2232E-4,0
LEGION 2,2024-081B,2026-07-11T11:15:39.370752,15.16807709,.0010031,97.5014,270.1652,248.0441,111.9727,0,U,59626,999,12122,.10743E-3,.2045E-4,0
ALOS-4 (DAICHI-4),2024-123A,2026-07-11T13:46:32.449152,14.79475579,.0001607,97.9220,289.3999,97.7398,262.3996,0,U,60182,999,10948,.11208E-3,.786E-5,0
LEGION 3,2024-146A,2026-07-11T10:44:55.790016,15.15641006,.0008547,45.0013,260.4746,314.1384,45.8791,0,U,60452,999,10570,.11858E-3,.203E-4,0
LEGION 4,2024-146B,2026-07-11T12:19:34.111200,15.15663058,.0008957,45.0027,351.9888,90.6036,269.5868,0,U,60453,999,10456,.16289E-3,.289E-4,0
SENTINEL-2C,2024-157A,2026-07-11T03:48:20.062656,14.30814932,.0000947,98.5685,266.6006,99.1815,260.9475,0,U,60989,999,9641,.2778E-4,.29E-6,0
IONOSFERA-M 1,2024-199A,2026-07-11T12:38:11.806656,14.22758591,.0002197,98.7141,65.4382,77.6137,282.5287,0,U,61735,999,13116,.30094E-4,.23E-6,0
IONOSFERA-M 2,2024-199B,2026-07-11T11:46:13.761120,14.22761965,.0000378,98.7140,65.3130,110.5481,249.5738,0,U,61736,999,13428,.26264E-4,.15E-6,0
PRSC-EO1,2025-012A,2026-07-11T07:44:52.484352,15.17752178,.0006631,97.4221,264.3100,161.2543,198.8936,0,U,62725,999,8185,.20455E-3,.4065E-4,0
BIOMASS,2025-090A,2026-07-11T12:19:38.521056,14.67537501,.0001474,98.0731,19.4739,88.7635,271.3739,0,U,63772,999,6425,.10843E-3,.567E-5,0
GOSAT-GW (IBUKI GW),2025-141A,2026-07-11T12:44:32.448768,14.67554733,.0001451,98.0565,129.4525,84.3336,275.8034,0,U,64694,999,5541,.51287E-4,.243E-5,0
IONOSFERA-M 3,2025-155A,2026-07-11T12:43:03.584640,14.21490415,.000218,98.6037,153.8238,118.1219,242.0179,0,U,64876,999,4986,.19058E-4,-.1E-7,0
